SES-18                  
1 55970U 23038A   25077.02082403 -.00000095  00000+0  00000+0 0  9995
2 55970   0.0357 259.7017 0002028  58.6325 121.8901  1.00272860  7527
SES-19                  
1 55971U 23038B   25078.25013703  .00000095  00000+0  00000+0 0  9998
2 55971   0.0118 168.8438 0001780 208.3617 114.9667  1.00272757  7529
INTELSAT 40E (IS-40E)   
1 56174U 23052A   25078.16594860 -.00000167  00000+0  00000+0 0  9999
2 56174   0.0088 193.2870 0000790 201.0840 111.3061  1.00271720  7271
VIASAT-3                
1 56370U 23060A   25077.02360420 -.00000179  00000+0  00000+0 0  9996
2 56370   0.0251 196.4460 0000471 203.3159  55.5980  1.00269850  6869
ARCTURUS                
1 56371U 23060B   25078.16794685 -.00000218  00000+0  00000+0 0  9991
2 56371   1.6006  85.5781 0001240 359.5547  71.3656  1.00268661  6886
GS-1                    
1 56372U 23060C   25075.98271302  .00000022  00000+0  00000+0 0  9997
2 56372   1.5444  85.1535 0004551 261.8701 245.7369  1.00248857  2957
BEIDOU-3 G4             
1 56564U 23066A   25078.14431541 -.00000105  00000+0  00000+0 0  9993
2 56564   1.4436 290.4903 0002001 206.6215 251.7847  1.00271581  6845
ARABSAT-7B (BADR-8)     
1 56757U 23075A   25077.26070071  .00000151  00000+0  00000+0 0  9996
2 56757   0.0769  24.1831 0005342 334.9469 296.7750  1.00272530  6557
NVS-01 (IRNSS-1J)       
1 56759U 23076A   25077.92395512 -.00000333  00000+0  00000+0 0  9995
2 56759   3.2952 259.6060 0007038  31.1539 348.0241  1.00267255  6559
NUSANTARA TIGA (SATRIA) 
1 57045U 23086A   25077.40366532 -.00000229  00000+0  00000+0 0  9992
2 57045   0.0552 334.2640 0005736 354.4364 138.8198  1.00271187  5197
H2SAT (HEINRICH HERTZ)  
1 57213U 23093A   25077.90093795  .00000095  00000+0  00000+0 0  9990
2 57213   0.0199 170.6745 0000433 240.9291 102.6750  1.00271547  6358
SYRACUSE 4B             
1 57214U 23093B   25077.48730133 -.00000048  00000+0  00000+0 0  9997
2 57214   0.0008 178.9487 0000268 248.4151 277.7663  1.00271533  7045
JUPITER 3 (ECHOSTAR 24) 
1 57479U 23108A   25077.77403011 -.00000143  00000+0  00000+0 0  9997
2 57479   0.0212 169.5092 0001321 184.6018   5.8875  1.00269904  6084
GALAXY 37 (G-37)        
1 57493U 23112A   25078.15873753  .00000055  00000+0  00000+0 0  9996
2 57493   0.0166 128.5214 0002124 243.5384  95.0363  1.00273612  5951
LUDI TANCE-4 01A        
1 57624U 23120A   25077.84007634 -.00000181  00000+0  00000+0 0  9994
2 57624  15.4657 205.1454 0004095 133.9088 229.5303  1.00271139  5985
TJS-10                  
1 58204U 23169A   25077.86123363  .00000011  00000+0  00000+0 0  9993
2 58204   1.3653  85.9830 0003607 204.6178   9.4191  1.00270082  4970
ZHONGXING-6E            
1 58253U 23172A   25077.92117494 -.00000355  00000+0  00000+0 0  9998
2 58253   0.0138 247.2587 0002624  76.9544 299.5968  1.00269296  5098
YAOGAN-41               
1 58582U 23197A   25077.88313152 -.00000356  00000+0  00000+0 0  9995
2 58582   4.0215 308.4996 0013733 169.4634 139.9050  1.00272512  4754
OVZON-3                 
1 58698U 24003A   25077.88313350  .00000058  00000+0  00000+0 0  9998
2 58698   0.0094 182.0068 0000837 191.6125 180.6895  1.00274204  2873
INSAT-3DS               
1 58990U 24033A   25078.21299374 -.00000149  00000+0  00000+0 0  9995
2 58990   0.0125 219.0198 0001949 146.3582 330.3652  1.00272162  4257
MERAH PUTIH 2           
1 58995U 24035A   25077.49223043 -.00000352  00000+0  00000+0 0  9997
2 58995   0.0216 109.6118 0001160 287.4714  69.3548  1.00271534  4028
TJS-11                  
1 59020U 24037A   25077.88313152 -.00000362  00000+0  00000+0 0  9994
2 59020   4.8698 322.6797 0003993  60.7524 231.4555  1.00277144  4013
HULIANWAN GAOGUI-01 (H*)
1 59069U 24040A   25077.83591264  .00000162  00000+0  00000+0 0  9995
2 59069   0.0427   7.3152 0007588 340.1768 163.7404  1.00268791  2763
EUTELSAT 36D            
1 59346U 24059A   25077.83591264  .00000162  00000+0  00000+0 0  9993
2 59346   0.0165 179.7783 0000180 236.5805  97.0518  1.00271231  3584
PAKSAT-MM1              
1 59915U 24104A   25078.19157832  .00000161  00000+0  00000+0 0  9994
2 59915   0.0094 179.7113 0002240 184.0688 280.3692  1.00273979  3029
GOES 19                 
1 60133U 24119A   25078.16620925 -.00000176  00000+0  00000+0 0  9996
2 60133   0.0430 356.1187 0001993  11.2820 139.9193  1.00272321  2745
ZHONGXING-3A            
1 60179U 24122A   25078.06125779 -.00000307  00000+0  00000+0 0  9992
2 60179   0.0070 251.7868 0000736  49.4032 359.2744  1.00272049  2750
TURKSAT 6A              
1 60233U 24127A   25078.19227337  .00000153  00000+0  00000+0 0  9993
2 60233   0.0335 206.0744 0001709  98.4859 343.6339  1.00274472  2549
HULIANWAN GAOGUI-02 (H*)
1 60327U 24135A   25078.14275156 -.00000165  00000+0  00000+0 0  9997
2 60327   0.0196 155.8305 0000847 134.6911  90.9248  1.00275750  2457
ZHONGXING-4A            
1 60606U 24151A   25077.92178310 -.00000357  00000+0  00000+0 0  9997
2 60606   2.4924 275.9833 0002432 104.0748 246.7093  1.00269649  2182
HULIANWAN GAOGUI-03 (H*)
1 61503U 24181A   25078.09722624 -.00000234  00000+0  00000+0 0  9993
2 61503   0.0203 172.6346 0001004 169.0929 152.9857  1.00274998  1730
DSN-3 (KIRAMEKI-3)      
1 61733U 24198A   25066.71392236 -.00000264  00000+0  00000+0 0  9997
2 61733   0.0172 190.2587 0001326 142.6668 233.7935  1.00270576  1246
KOREASAT 6A             
1 61910U 24206A   25077.92134870 -.00000355  00000+0  00000+0 0  9998
2 61910   0.0155 162.1149 0000954 246.7110 215.5840  1.00271348  1274
OPTUS-X (ADS-01)        
1 62006U 24212A   25078.20570071 -.00000266  00000+0  00000+0 0  9992
2 62006   0.0324 257.5522 0000344 161.3746 287.5584  1.00274137  1221
GSAT-N2 (GSAT-20)       
1 62028U 24214A   25077.91179186 -.00000012  00000+0  00000+0 0  9996
2 62028   0.0156 188.6289 0000674 182.1532 202.0538  1.00272464  1336
SXM-9                   
1 62259U 24234A   25077.59571105 -.00000199  00000+0  00000+0 0  9991
2 62259   0.0373 313.7184 0004466 354.2416 357.7285  1.00274027  1024
TJS-12                  
1 62374U 24246A   25077.89210517 -.00000227  00000+0  00000+0 0  9994
2 62374   1.7756 284.9402 0001367  61.5337 297.7771  1.00268471   998
SHIJIAN-25 (SJ-25)      
1 62485U 25002A   25077.75761394 -.00000361  00000+0  00000+0 0  9996
2 62485  10.3288  43.1987 0058694 182.8176 342.6696  1.00288055   809
TJS-14                  
1 62804U 25017A   25077.90189363  .00000120  00000+0  00000+0 0  9996
2 62804   1.8962 284.8545 0000847 170.7202  64.1530  1.00269819   704
QZS-6 (MICHIBIKI-6)     
1 62876U 25023A   25077.69285822 -.00000226  00000+0  00000+0 0  9993
2 62876   0.0550 354.6655 0001580  11.6526 150.0675  1.00268652   396
STARLETTE               
1 07646U 75010A   25077.93554702 -.00000123  00000+0  16462-4 0  9991
2 07646  49.8228 101.5520 0205632 359.0923   0.9571 13.82340959531567
LAGEOS 1                
1 08820U 76039A   25077.45680958  .00000001  00000+0  00000+0 0  9998
2 08820 109.8620  23.2258 0044349  39.3890 103.8839  6.38665105884039
AJISAI (EGS)            
1 16908U 86061A   25077.96109334 -.00000093  00000+0  31022-4 0  9995
2 16908  50.0075 107.1998 0011323 101.8203 354.3381 12.44511192423706
COSMOS 1989 (ETALON 1)  
1 19751U 89001C   25077.68434694  .00000027  00000+0  00000+0 0  9993
2 19751  64.6881  87.8030 0023649 216.8443 133.7140  2.13156215281653
COSMOS 2024 (ETALON 2)  
1 20026U 89039C   25077.40073066 -.00000054  00000+0  00000+0 0  9994
2 20026  65.2013 326.1967 0019887 215.8077 356.2039  2.13204565278784
LAGEOS 2                
1 22195U 92070B   25065.87914605 -.00000009  00000+0  00000+0 0  9993
2 22195  52.6420 201.9779 0137132 342.8036 314.4195  6.47293977765164
STELLA                  
1 22824U 93061B   25077.94327752 -.00000015  00000+0  12579-4 0  9991
2 22824  98.8361 133.9175 0007351 116.7335   7.8606 14.27451286639821
LARETS                  
1 27944U 03042F   25078.20887075  .00000346  00000+0  75947-4 0  9992
2 27944  98.3527 227.4775 0012701  22.0309 338.1436 14.63724097146881
LARES                   
1 38077U 12006A   25078.19169845 -.00000042  00000+0 -22940-4 0  9997
2 38077  69.4935 349.4217 0006616 119.4785 240.6902 12.54931616600082
LARES-2                 
1 53105U 22080A   25067.37264466  .00000010  00000+0  00000+0 0  9993
2 53105  70.1382 105.0883 0004849  76.3690 283.7629  6.38965258 61903
COSMOS 2433 (720)       
1 32275U 07052A   25077.26603568 -.00000060  00000+0  00000+0 0  9995
2 32275  65.8181 331.2375 0001936 283.3537  76.6816  2.13104090135344
COSMOS 2432 (719)       
1 32276U 07052B   25077.56799238 -.00000060  00000+0  00000+0 0  9999
2 32276  65.8334 331.3465 0010802 332.8773 204.1958  2.13103314135376
COSMOS 2434 (721)       
1 32393U 07065A   25077.15369062  .00000034  00000+0  00000+0 0  9996
2 32393  64.3172 207.3032 0003508  73.2821  92.2533  2.13101436134059
COSMOS 2436 (723)       
1 32395U 07065C   25077.67315105  .00000037  00000+0  00000+0 0  9997
2 32395  64.3257 207.3531 0017022   5.5494 332.7287  2.13100303134015
COSMOS 2456 (730)       
1 36111U 09070A   25077.30515633  .00000025  00000+0  00000+0 0  9990
2 36111  64.7495  86.5549 0006431 304.4671 132.5894  2.13103755118712
COSMOS 2457 (733)       
1 36112U 09070B   25076.72798769  .00000023  00000+0  00000+0 0  9997
2 36112  64.7341  86.4276 0002660 200.9156 284.9735  2.13101197118700
COSMOS 2460 (732)       
1 36402U 10007C   25077.30447707 -.00000058  00000+0  00000+0 0  9998
2 36402  65.6691 329.8532 0002139  18.0909 185.6081  2.13106269117013
COSMOS 2476 (744)       
1 37867U 11064A   25077.41661032  .00000027  00000+0  00000+0 0  9994
2 37867  65.0171  88.2874 0024799 241.6170 191.5554  2.13101640104050
COSMOS 2477 (745)       
1 37868U 11064B   25078.02291471  .00000031  00000+0  00000+0 0  9994
2 37868  65.0241  88.3420 0021987 243.2285 114.5823  2.13103092104055
